G17         ; Set plane XY
G40         ; Cancel mill rounding compensation
G49         ; Cancel mill len correction
G80         ; Cancel repeats
G90         ; Absolute positioning
G21         ; Set units to mm
G54         ;

G1 Z20 F900 ; Move to clearance level
M3          ; Start spindle


;
; Operation:    0
; Name:         
; Type:         Pocket
; Paths:        1
; Direction:    Conventional
; Safe Z:       40
; Work Z:       20
; Cut Depth:    0.9999999999999999
; Pass Depth:   0.24999999999999997
; Plunge rate:  30
; Cut rate:     80
; Tool:         3mm Endmill
;

; Path 0
; Rapid to initial position
G1 X3.2634 Y-2.9337 F900
G1 Z0.0000
; plunge
G1 Z-0.2500 F30
; cut
G1 X3.2222 Y-2.9682 F80
G1 X3.1857 Y-3.0013
G1 X3.1097 Y-3.0724
G1 X3.0711 Y-3.1112
G1 X2.9995 Y-3.1869
G1 X2.9634 Y-3.2278
G1 X2.8976 Y-3.3066
G1 X2.8651 Y-3.3475
G1 X2.8029 Y-3.4310
G1 X2.7727 Y-3.4742
G1 X2.7140 Y-3.5634
G1 X2.7000 Y-3.5862
G1 X2.7000 Y-2.8943
G1 X3.2634 Y-2.9337
G1 X3.6205 Y-3.4171
G1 X3.5956 Y-3.4392
G1 X3.5319 Y-3.4988
G1 X3.5065 Y-3.5240
G1 X3.4465 Y-3.5872
G1 X3.4226 Y-3.6139
G1 X3.3665 Y-3.6807
G1 X3.3454 Y-3.7071
G1 X3.2931 Y-3.7770
G1 X3.2730 Y-3.8054
G1 X3.2248 Y-3.8783
G1 X3.2060 Y-3.9088
G1 X3.1623 Y-3.9842
G1 X3.1458 Y-4.0145
G1 X3.1064 Y-4.0924
G1 X3.0919 Y-4.1237
G1 X3.0571 Y-4.2037
G1 X3.0439 Y-4.2365
G1 X3.0140 Y-4.3183
G1 X3.0033 Y-4.3503
G1 X2.9779 Y-4.4338
G1 X2.9682 Y-4.4689
G1 X2.9479 Y-4.5540
G1 X2.9408 Y-4.5885
G1 X2.9256 Y-4.6744
G1 X2.9207 Y-4.7076
G1 X2.9103 Y-4.7942
G1 X2.9070 Y-4.8293
G1 X2.9007 Y-4.9433
G1 X2.8999 Y-5.0000
G1 X2.8999 Y-19.8999
G1 X2.1001 Y-19.8999
G1 X2.1001 Y-2.2512
G1 X19.8498 Y-3.4887
G1 X19.8498 Y-4.2319
G1 X5.1714 Y-2.9070
G1 X5.0843 Y-2.9017
G1 X5.0477 Y-2.9007
G1 X4.9604 Y-2.9007
G1 X4.9271 Y-2.9014
G1 X4.8400 Y-2.9063
G1 X4.8052 Y-2.9093
G1 X4.7186 Y-2.9192
G1 X4.6855 Y-2.9240
G1 X4.5994 Y-2.9388
G1 X4.5623 Y-2.9461
G1 X4.4775 Y-2.9662
G1 X4.4465 Y-2.9746
G1 X4.3627 Y-2.9992
G1 X4.3274 Y-3.0107
G1 X4.2454 Y-3.0404
G1 X4.2141 Y-3.0528
G1 X4.1338 Y-3.0871
G1 X4.1006 Y-3.1026
G1 X4.0226 Y-3.1417
G1 X3.9929 Y-3.1575
G1 X3.9172 Y-3.2009
G1 X3.8880 Y-3.2189
G1 X3.8148 Y-3.2667
G1 X3.7861 Y-3.2865
G1 X3.7160 Y-3.3383
G1 X3.6876 Y-3.3609
G1 X3.6205 Y-3.4171
G1 X4.0056 Y-3.8771
G1 X3.9418 Y-3.9367
G1 X3.8819 Y-4.0000
G1 X3.8257 Y-4.0668
G1 X3.7734 Y-4.1366
G1 X3.7252 Y-4.2095
G1 X3.6815 Y-4.2850
G1 X3.6421 Y-4.3630
G1 X3.6073 Y-4.4430
G1 X3.5773 Y-4.5248
G1 X3.5519 Y-4.6083
G1 X3.5316 Y-4.6934
G1 X3.5164 Y-4.7793
G1 X3.5060 Y-4.8659
G1 X3.5006 Y-4.9530
G1 X3.4999 Y-5.0000
G1 X3.4999 Y-20.4998
G1 X1.5001 Y-20.4998
G1 X1.5001 Y-1.6081
G1 X20.4498 Y-2.9291
G1 X20.4498 Y-4.8885
G1 X5.1349 Y-3.5060
G1 X5.0477 Y-3.5006
G1 X4.9604 Y-3.5006
G1 X4.8732 Y-3.5055
G1 X4.7866 Y-3.5154
G1 X4.7005 Y-3.5301
G1 X4.6157 Y-3.5502
G1 X4.5319 Y-3.5748
G1 X4.4498 Y-3.6045
G1 X4.3696 Y-3.6388
G1 X4.2916 Y-3.6779
G1 X4.2159 Y-3.7214
G1 X4.1427 Y-3.7691
G1 X4.0726 Y-3.8209
G1 X4.0056 Y-3.8771
; Rapid to initial position
G1 X3.2634 Y-2.9337 F900
G1 Z-0.2500
; plunge
G1 Z-0.5000 F30
; cut
G1 X3.2222 Y-2.9682 F80
G1 X3.1857 Y-3.0013
G1 X3.1097 Y-3.0724
G1 X3.0711 Y-3.1112
G1 X2.9995 Y-3.1869
G1 X2.9634 Y-3.2278
G1 X2.8976 Y-3.3066
G1 X2.8651 Y-3.3475
G1 X2.8029 Y-3.4310
G1 X2.7727 Y-3.4742
G1 X2.7140 Y-3.5634
G1 X2.7000 Y-3.5862
G1 X2.7000 Y-2.8943
G1 X3.2634 Y-2.9337
G1 X3.6205 Y-3.4171
G1 X3.5956 Y-3.4392
G1 X3.5319 Y-3.4988
G1 X3.5065 Y-3.5240
G1 X3.4465 Y-3.5872
G1 X3.4226 Y-3.6139
G1 X3.3665 Y-3.6807
G1 X3.3454 Y-3.7071
G1 X3.2931 Y-3.7770
G1 X3.2730 Y-3.8054
G1 X3.2248 Y-3.8783
G1 X3.2060 Y-3.9088
G1 X3.1623 Y-3.9842
G1 X3.1458 Y-4.0145
G1 X3.1064 Y-4.0924
G1 X3.0919 Y-4.1237
G1 X3.0571 Y-4.2037
G1 X3.0439 Y-4.2365
G1 X3.0140 Y-4.3183
G1 X3.0033 Y-4.3503
G1 X2.9779 Y-4.4338
G1 X2.9682 Y-4.4689
G1 X2.9479 Y-4.5540
G1 X2.9408 Y-4.5885
G1 X2.9256 Y-4.6744
G1 X2.9207 Y-4.7076
G1 X2.9103 Y-4.7942
G1 X2.9070 Y-4.8293
G1 X2.9007 Y-4.9433
G1 X2.8999 Y-5.0000
G1 X2.8999 Y-19.8999
G1 X2.1001 Y-19.8999
G1 X2.1001 Y-2.2512
G1 X19.8498 Y-3.4887
G1 X19.8498 Y-4.2319
G1 X5.1714 Y-2.9070
G1 X5.0843 Y-2.9017
G1 X5.0477 Y-2.9007
G1 X4.9604 Y-2.9007
G1 X4.9271 Y-2.9014
G1 X4.8400 Y-2.9063
G1 X4.8052 Y-2.9093
G1 X4.7186 Y-2.9192
G1 X4.6855 Y-2.9240
G1 X4.5994 Y-2.9388
G1 X4.5623 Y-2.9461
G1 X4.4775 Y-2.9662
G1 X4.4465 Y-2.9746
G1 X4.3627 Y-2.9992
G1 X4.3274 Y-3.0107
G1 X4.2454 Y-3.0404
G1 X4.2141 Y-3.0528
G1 X4.1338 Y-3.0871
G1 X4.1006 Y-3.1026
G1 X4.0226 Y-3.1417
G1 X3.9929 Y-3.1575
G1 X3.9172 Y-3.2009
G1 X3.8880 Y-3.2189
G1 X3.8148 Y-3.2667
G1 X3.7861 Y-3.2865
G1 X3.7160 Y-3.3383
G1 X3.6876 Y-3.3609
G1 X3.6205 Y-3.4171
G1 X4.0056 Y-3.8771
G1 X3.9418 Y-3.9367
G1 X3.8819 Y-4.0000
G1 X3.8257 Y-4.0668
G1 X3.7734 Y-4.1366
G1 X3.7252 Y-4.2095
G1 X3.6815 Y-4.2850
G1 X3.6421 Y-4.3630
G1 X3.6073 Y-4.4430
G1 X3.5773 Y-4.5248
G1 X3.5519 Y-4.6083
G1 X3.5316 Y-4.6934
G1 X3.5164 Y-4.7793
G1 X3.5060 Y-4.8659
G1 X3.5006 Y-4.9530
G1 X3.4999 Y-5.0000
G1 X3.4999 Y-20.4998
G1 X1.5001 Y-20.4998
G1 X1.5001 Y-1.6081
G1 X20.4498 Y-2.9291
G1 X20.4498 Y-4.8885
G1 X5.1349 Y-3.5060
G1 X5.0477 Y-3.5006
G1 X4.9604 Y-3.5006
G1 X4.8732 Y-3.5055
G1 X4.7866 Y-3.5154
G1 X4.7005 Y-3.5301
G1 X4.6157 Y-3.5502
G1 X4.5319 Y-3.5748
G1 X4.4498 Y-3.6045
G1 X4.3696 Y-3.6388
G1 X4.2916 Y-3.6779
G1 X4.2159 Y-3.7214
G1 X4.1427 Y-3.7691
G1 X4.0726 Y-3.8209
G1 X4.0056 Y-3.8771
; Rapid to initial position
G1 X3.2634 Y-2.9337 F900
G1 Z-0.5000
; plunge
G1 Z-0.7500 F30
; cut
G1 X3.2222 Y-2.9682 F80
G1 X3.1857 Y-3.0013
G1 X3.1097 Y-3.0724
G1 X3.0711 Y-3.1112
G1 X2.9995 Y-3.1869
G1 X2.9634 Y-3.2278
G1 X2.8976 Y-3.3066
G1 X2.8651 Y-3.3475
G1 X2.8029 Y-3.4310
G1 X2.7727 Y-3.4742
G1 X2.7140 Y-3.5634
G1 X2.7000 Y-3.5862
G1 X2.7000 Y-2.8943
G1 X3.2634 Y-2.9337
G1 X3.6205 Y-3.4171
G1 X3.5956 Y-3.4392
G1 X3.5319 Y-3.4988
G1 X3.5065 Y-3.5240
G1 X3.4465 Y-3.5872
G1 X3.4226 Y-3.6139
G1 X3.3665 Y-3.6807
G1 X3.3454 Y-3.7071
G1 X3.2931 Y-3.7770
G1 X3.2730 Y-3.8054
G1 X3.2248 Y-3.8783
G1 X3.2060 Y-3.9088
G1 X3.1623 Y-3.9842
G1 X3.1458 Y-4.0145
G1 X3.1064 Y-4.0924
G1 X3.0919 Y-4.1237
G1 X3.0571 Y-4.2037
G1 X3.0439 Y-4.2365
G1 X3.0140 Y-4.3183
G1 X3.0033 Y-4.3503
G1 X2.9779 Y-4.4338
G1 X2.9682 Y-4.4689
G1 X2.9479 Y-4.5540
G1 X2.9408 Y-4.5885
G1 X2.9256 Y-4.6744
G1 X2.9207 Y-4.7076
G1 X2.9103 Y-4.7942
G1 X2.9070 Y-4.8293
G1 X2.9007 Y-4.9433
G1 X2.8999 Y-5.0000
G1 X2.8999 Y-19.8999
G1 X2.1001 Y-19.8999
G1 X2.1001 Y-2.2512
G1 X19.8498 Y-3.4887
G1 X19.8498 Y-4.2319
G1 X5.1714 Y-2.9070
G1 X5.0843 Y-2.9017
G1 X5.0477 Y-2.9007
G1 X4.9604 Y-2.9007
G1 X4.9271 Y-2.9014
G1 X4.8400 Y-2.9063
G1 X4.8052 Y-2.9093
G1 X4.7186 Y-2.9192
G1 X4.6855 Y-2.9240
G1 X4.5994 Y-2.9388
G1 X4.5623 Y-2.9461
G1 X4.4775 Y-2.9662
G1 X4.4465 Y-2.9746
G1 X4.3627 Y-2.9992
G1 X4.3274 Y-3.0107
G1 X4.2454 Y-3.0404
G1 X4.2141 Y-3.0528
G1 X4.1338 Y-3.0871
G1 X4.1006 Y-3.1026
G1 X4.0226 Y-3.1417
G1 X3.9929 Y-3.1575
G1 X3.9172 Y-3.2009
G1 X3.8880 Y-3.2189
G1 X3.8148 Y-3.2667
G1 X3.7861 Y-3.2865
G1 X3.7160 Y-3.3383
G1 X3.6876 Y-3.3609
G1 X3.6205 Y-3.4171
G1 X4.0056 Y-3.8771
G1 X3.9418 Y-3.9367
G1 X3.8819 Y-4.0000
G1 X3.8257 Y-4.0668
G1 X3.7734 Y-4.1366
G1 X3.7252 Y-4.2095
G1 X3.6815 Y-4.2850
G1 X3.6421 Y-4.3630
G1 X3.6073 Y-4.4430
G1 X3.5773 Y-4.5248
G1 X3.5519 Y-4.6083
G1 X3.5316 Y-4.6934
G1 X3.5164 Y-4.7793
G1 X3.5060 Y-4.8659
G1 X3.5006 Y-4.9530
G1 X3.4999 Y-5.0000
G1 X3.4999 Y-20.4998
G1 X1.5001 Y-20.4998
G1 X1.5001 Y-1.6081
G1 X20.4498 Y-2.9291
G1 X20.4498 Y-4.8885
G1 X5.1349 Y-3.5060
G1 X5.0477 Y-3.5006
G1 X4.9604 Y-3.5006
G1 X4.8732 Y-3.5055
G1 X4.7866 Y-3.5154
G1 X4.7005 Y-3.5301
G1 X4.6157 Y-3.5502
G1 X4.5319 Y-3.5748
G1 X4.4498 Y-3.6045
G1 X4.3696 Y-3.6388
G1 X4.2916 Y-3.6779
G1 X4.2159 Y-3.7214
G1 X4.1427 Y-3.7691
G1 X4.0726 Y-3.8209
G1 X4.0056 Y-3.8771
; Rapid to initial position
G1 X3.2634 Y-2.9337 F900
G1 Z-0.7500
; plunge
G1 Z-1.0000 F30
; cut
G1 X3.2222 Y-2.9682 F80
G1 X3.1857 Y-3.0013
G1 X3.1097 Y-3.0724
G1 X3.0711 Y-3.1112
G1 X2.9995 Y-3.1869
G1 X2.9634 Y-3.2278
G1 X2.8976 Y-3.3066
G1 X2.8651 Y-3.3475
G1 X2.8029 Y-3.4310
G1 X2.7727 Y-3.4742
G1 X2.7140 Y-3.5634
G1 X2.7000 Y-3.5862
G1 X2.7000 Y-2.8943
G1 X3.2634 Y-2.9337
G1 X3.6205 Y-3.4171
G1 X3.5956 Y-3.4392
G1 X3.5319 Y-3.4988
G1 X3.5065 Y-3.5240
G1 X3.4465 Y-3.5872
G1 X3.4226 Y-3.6139
G1 X3.3665 Y-3.6807
G1 X3.3454 Y-3.7071
G1 X3.2931 Y-3.7770
G1 X3.2730 Y-3.8054
G1 X3.2248 Y-3.8783
G1 X3.2060 Y-3.9088
G1 X3.1623 Y-3.9842
G1 X3.1458 Y-4.0145
G1 X3.1064 Y-4.0924
G1 X3.0919 Y-4.1237
G1 X3.0571 Y-4.2037
G1 X3.0439 Y-4.2365
G1 X3.0140 Y-4.3183
G1 X3.0033 Y-4.3503
G1 X2.9779 Y-4.4338
G1 X2.9682 Y-4.4689
G1 X2.9479 Y-4.5540
G1 X2.9408 Y-4.5885
G1 X2.9256 Y-4.6744
G1 X2.9207 Y-4.7076
G1 X2.9103 Y-4.7942
G1 X2.9070 Y-4.8293
G1 X2.9007 Y-4.9433
G1 X2.8999 Y-5.0000
G1 X2.8999 Y-19.8999
G1 X2.1001 Y-19.8999
G1 X2.1001 Y-2.2512
G1 X19.8498 Y-3.4887
G1 X19.8498 Y-4.2319
G1 X5.1714 Y-2.9070
G1 X5.0843 Y-2.9017
G1 X5.0477 Y-2.9007
G1 X4.9604 Y-2.9007
G1 X4.9271 Y-2.9014
G1 X4.8400 Y-2.9063
G1 X4.8052 Y-2.9093
G1 X4.7186 Y-2.9192
G1 X4.6855 Y-2.9240
G1 X4.5994 Y-2.9388
G1 X4.5623 Y-2.9461
G1 X4.4775 Y-2.9662
G1 X4.4465 Y-2.9746
G1 X4.3627 Y-2.9992
G1 X4.3274 Y-3.0107
G1 X4.2454 Y-3.0404
G1 X4.2141 Y-3.0528
G1 X4.1338 Y-3.0871
G1 X4.1006 Y-3.1026
G1 X4.0226 Y-3.1417
G1 X3.9929 Y-3.1575
G1 X3.9172 Y-3.2009
G1 X3.8880 Y-3.2189
G1 X3.8148 Y-3.2667
G1 X3.7861 Y-3.2865
G1 X3.7160 Y-3.3383
G1 X3.6876 Y-3.3609
G1 X3.6205 Y-3.4171
G1 X4.0056 Y-3.8771
G1 X3.9418 Y-3.9367
G1 X3.8819 Y-4.0000
G1 X3.8257 Y-4.0668
G1 X3.7734 Y-4.1366
G1 X3.7252 Y-4.2095
G1 X3.6815 Y-4.2850
G1 X3.6421 Y-4.3630
G1 X3.6073 Y-4.4430
G1 X3.5773 Y-4.5248
G1 X3.5519 Y-4.6083
G1 X3.5316 Y-4.6934
G1 X3.5164 Y-4.7793
G1 X3.5060 Y-4.8659
G1 X3.5006 Y-4.9530
G1 X3.4999 Y-5.0000
G1 X3.4999 Y-20.4998
G1 X1.5001 Y-20.4998
G1 X1.5001 Y-1.6081
G1 X20.4498 Y-2.9291
G1 X20.4498 Y-4.8885
G1 X5.1349 Y-3.5060
G1 X5.0477 Y-3.5006
G1 X4.9604 Y-3.5006
G1 X4.8732 Y-3.5055
G1 X4.7866 Y-3.5154
G1 X4.7005 Y-3.5301
G1 X4.6157 Y-3.5502
G1 X4.5319 Y-3.5748
G1 X4.4498 Y-3.6045
G1 X4.3696 Y-3.6388
G1 X4.2916 Y-3.6779
G1 X4.2159 Y-3.7214
G1 X4.1427 Y-3.7691
G1 X4.0726 Y-3.8209
G1 X4.0056 Y-3.8771
; Retract
G1 Z20.0000 F900

; Return to 0,0
G0 X0 Y0 F900
M5       ; Stop spindle
M30      ; End of the program (move to start)
