G17         ; Set plane XY
G40         ; Cancel mill rounding compensation
G49         ; Cancel mill len correction
G80         ; Cancel repeats
G90         ; Absolute positioning
G21         ; Set units to mm
G54         ;

G1 Z40 F900 ; Move to clearance level
M3          ; Start spindle


;
; Operation:    0
; Name:         
; Type:         Pocket
; Paths:        1
; Direction:    Conventional
; Safe Z:       40
; Work Z:       20
; Cut Depth:    0.9999999999999999
; Pass Depth:   0.24999999999999997
; Plunge rate:  30
; Cut rate:     80
; Tool:         3mm Endmill
;

; Path 0
; Rapid to initial position
G1 X2.7379 Y3.5266 F900
G1 Z0.0000
; plunge
G1 Z-0.2500 F30
; cut
G1 X2.7635 Y3.4882 F80
G1 X2.8237 Y3.4024
G1 X2.8562 Y3.3592
G1 X2.9210 Y3.2779
G1 X2.9550 Y3.2375
G1 X3.0262 Y3.1580
G1 X3.0610 Y3.1220
G1 X3.1336 Y3.0493
G1 X3.1730 Y3.0125
G1 X3.2504 Y2.9439
G1 X3.2626 Y2.9335
G1 X2.7000 Y2.8944
G1 X2.7000 Y3.5868
G1 X2.7379 Y3.5266
G1 X3.2370 Y3.8593
G1 X3.2553 Y3.8319
G1 X3.3053 Y3.7603
G1 X3.3266 Y3.7316
G1 X3.3807 Y3.6632
G1 X3.4031 Y3.6366
G1 X3.4613 Y3.5713
G1 X3.4851 Y3.5461
G1 X3.5469 Y3.4844
G1 X3.5720 Y3.4605
G1 X3.6370 Y3.4026
G1 X3.6645 Y3.3795
G1 X3.7330 Y3.3254
G1 X3.7610 Y3.3048
G1 X3.8326 Y3.2548
G1 X3.8613 Y3.2358
G1 X3.9355 Y3.1900
G1 X3.9662 Y3.1725
G1 X4.0432 Y3.1311
G1 X4.0739 Y3.1156
G1 X4.1529 Y3.0788
G1 X4.1844 Y3.0651
G1 X4.2654 Y3.0328
G1 X4.2992 Y3.0206
G1 X4.3823 Y2.9932
G1 X4.4150 Y2.9833
G1 X4.4994 Y2.9607
G1 X4.5342 Y2.9525
G1 X4.6195 Y2.9350
G1 X4.6528 Y2.9292
G1 X4.7391 Y2.9165
G1 X4.7742 Y2.9124
G1 X4.8613 Y2.9048
G1 X4.8961 Y2.9028
G1 X4.9832 Y2.9002
G1 X5.0198 Y2.9002
G1 X5.1303 Y2.9043
G1 X5.1887 Y2.9083
G1 X19.8498 Y4.2317
G1 X19.8498 Y3.4885
G1 X2.1001 Y2.2512
G1 X2.1001 Y19.8999
G1 X2.8999 Y19.8999
G1 X2.9002 Y4.9825
G1 X2.9027 Y4.8954
G1 X2.9047 Y4.8606
G1 X2.9124 Y4.7735
G1 X2.9164 Y4.7384
G1 X2.9291 Y4.6521
G1 X2.9352 Y4.6170
G1 X2.9530 Y4.5317
G1 X2.9609 Y4.4986
G1 X2.9835 Y4.4143
G1 X2.9936 Y4.3810
G1 X3.0211 Y4.2982
G1 X3.0328 Y4.2657
G1 X3.0650 Y4.1844
G1 X3.0790 Y4.1522
G1 X3.1158 Y4.0732
G1 X3.1313 Y4.0425
G1 X3.1727 Y3.9655
G1 X3.1910 Y3.9335
G1 X3.2370 Y3.8593
G1 X3.7470 Y4.1756
G1 X3.7970 Y4.1039
G1 X3.8511 Y4.0356
G1 X3.9093 Y3.9703
G1 X3.9710 Y3.9086
G1 X4.0361 Y3.8507
G1 X4.1046 Y3.7966
G1 X4.1763 Y3.7465
G1 X4.2504 Y3.7008
G1 X4.3274 Y3.6594
G1 X4.4064 Y3.6226
G1 X4.4874 Y3.5903
G1 X4.5705 Y3.5629
G1 X4.6548 Y3.5403
G1 X4.7401 Y3.5228
G1 X4.8265 Y3.5101
G1 X4.9136 Y3.5025
G1 X5.0008 Y3.4999
G1 X5.0881 Y3.5027
G1 X5.1349 Y3.5060
G1 X20.4498 Y4.8883
G1 X20.4498 Y2.9289
G1 X1.5001 Y1.6081
G1 X1.5001 Y20.4999
G1 X3.4999 Y20.4999
G1 X3.4999 Y5.0000
G1 X3.5024 Y4.9129
G1 X3.5100 Y4.8258
G1 X3.5227 Y4.7394
G1 X3.5405 Y4.6541
G1 X3.5631 Y4.5698
G1 X3.5905 Y4.4870
G1 X3.6228 Y4.4057
G1 X3.6596 Y4.3267
G1 X3.7010 Y4.2497
G1 X3.7470 Y4.1756
; Rapid to initial position
G1 X2.7379 Y3.5266 F900
G1 Z-0.2500
; plunge
G1 Z-0.5000 F30
; cut
G1 X2.7635 Y3.4882 F80
G1 X2.8237 Y3.4024
G1 X2.8562 Y3.3592
G1 X2.9210 Y3.2779
G1 X2.9550 Y3.2375
G1 X3.0262 Y3.1580
G1 X3.0610 Y3.1220
G1 X3.1336 Y3.0493
G1 X3.1730 Y3.0125
G1 X3.2504 Y2.9439
G1 X3.2626 Y2.9335
G1 X2.7000 Y2.8944
G1 X2.7000 Y3.5868
G1 X2.7379 Y3.5266
G1 X3.2370 Y3.8593
G1 X3.2553 Y3.8319
G1 X3.3053 Y3.7603
G1 X3.3266 Y3.7316
G1 X3.3807 Y3.6632
G1 X3.4031 Y3.6366
G1 X3.4613 Y3.5713
G1 X3.4851 Y3.5461
G1 X3.5469 Y3.4844
G1 X3.5720 Y3.4605
G1 X3.6370 Y3.4026
G1 X3.6645 Y3.3795
G1 X3.7330 Y3.3254
G1 X3.7610 Y3.3048
G1 X3.8326 Y3.2548
G1 X3.8613 Y3.2358
G1 X3.9355 Y3.1900
G1 X3.9662 Y3.1725
G1 X4.0432 Y3.1311
G1 X4.0739 Y3.1156
G1 X4.1529 Y3.0788
G1 X4.1844 Y3.0651
G1 X4.2654 Y3.0328
G1 X4.2992 Y3.0206
G1 X4.3823 Y2.9932
G1 X4.4150 Y2.9833
G1 X4.4994 Y2.9607
G1 X4.5342 Y2.9525
G1 X4.6195 Y2.9350
G1 X4.6528 Y2.9292
G1 X4.7391 Y2.9165
G1 X4.7742 Y2.9124
G1 X4.8613 Y2.9048
G1 X4.8961 Y2.9028
G1 X4.9832 Y2.9002
G1 X5.0198 Y2.9002
G1 X5.1303 Y2.9043
G1 X5.1887 Y2.9083
G1 X19.8498 Y4.2317
G1 X19.8498 Y3.4885
G1 X2.1001 Y2.2512
G1 X2.1001 Y19.8999
G1 X2.8999 Y19.8999
G1 X2.9002 Y4.9825
G1 X2.9027 Y4.8954
G1 X2.9047 Y4.8606
G1 X2.9124 Y4.7735
G1 X2.9164 Y4.7384
G1 X2.9291 Y4.6521
G1 X2.9352 Y4.6170
G1 X2.9530 Y4.5317
G1 X2.9609 Y4.4986
G1 X2.9835 Y4.4143
G1 X2.9936 Y4.3810
G1 X3.0211 Y4.2982
G1 X3.0328 Y4.2657
G1 X3.0650 Y4.1844
G1 X3.0790 Y4.1522
G1 X3.1158 Y4.0732
G1 X3.1313 Y4.0425
G1 X3.1727 Y3.9655
G1 X3.1910 Y3.9335
G1 X3.2370 Y3.8593
G1 X3.7470 Y4.1756
G1 X3.7970 Y4.1039
G1 X3.8511 Y4.0356
G1 X3.9093 Y3.9703
G1 X3.9710 Y3.9086
G1 X4.0361 Y3.8507
G1 X4.1046 Y3.7966
G1 X4.1763 Y3.7465
G1 X4.2504 Y3.7008
G1 X4.3274 Y3.6594
G1 X4.4064 Y3.6226
G1 X4.4874 Y3.5903
G1 X4.5705 Y3.5629
G1 X4.6548 Y3.5403
G1 X4.7401 Y3.5228
G1 X4.8265 Y3.5101
G1 X4.9136 Y3.5025
G1 X5.0008 Y3.4999
G1 X5.0881 Y3.5027
G1 X5.1349 Y3.5060
G1 X20.4498 Y4.8883
G1 X20.4498 Y2.9289
G1 X1.5001 Y1.6081
G1 X1.5001 Y20.4999
G1 X3.4999 Y20.4999
G1 X3.4999 Y5.0000
G1 X3.5024 Y4.9129
G1 X3.5100 Y4.8258
G1 X3.5227 Y4.7394
G1 X3.5405 Y4.6541
G1 X3.5631 Y4.5698
G1 X3.5905 Y4.4870
G1 X3.6228 Y4.4057
G1 X3.6596 Y4.3267
G1 X3.7010 Y4.2497
G1 X3.7470 Y4.1756
; Rapid to initial position
G1 X2.7379 Y3.5266 F900
G1 Z-0.5000
; plunge
G1 Z-0.7500 F30
; cut
G1 X2.7635 Y3.4882 F80
G1 X2.8237 Y3.4024
G1 X2.8562 Y3.3592
G1 X2.9210 Y3.2779
G1 X2.9550 Y3.2375
G1 X3.0262 Y3.1580
G1 X3.0610 Y3.1220
G1 X3.1336 Y3.0493
G1 X3.1730 Y3.0125
G1 X3.2504 Y2.9439
G1 X3.2626 Y2.9335
G1 X2.7000 Y2.8944
G1 X2.7000 Y3.5868
G1 X2.7379 Y3.5266
G1 X3.2370 Y3.8593
G1 X3.2553 Y3.8319
G1 X3.3053 Y3.7603
G1 X3.3266 Y3.7316
G1 X3.3807 Y3.6632
G1 X3.4031 Y3.6366
G1 X3.4613 Y3.5713
G1 X3.4851 Y3.5461
G1 X3.5469 Y3.4844
G1 X3.5720 Y3.4605
G1 X3.6370 Y3.4026
G1 X3.6645 Y3.3795
G1 X3.7330 Y3.3254
G1 X3.7610 Y3.3048
G1 X3.8326 Y3.2548
G1 X3.8613 Y3.2358
G1 X3.9355 Y3.1900
G1 X3.9662 Y3.1725
G1 X4.0432 Y3.1311
G1 X4.0739 Y3.1156
G1 X4.1529 Y3.0788
G1 X4.1844 Y3.0651
G1 X4.2654 Y3.0328
G1 X4.2992 Y3.0206
G1 X4.3823 Y2.9932
G1 X4.4150 Y2.9833
G1 X4.4994 Y2.9607
G1 X4.5342 Y2.9525
G1 X4.6195 Y2.9350
G1 X4.6528 Y2.9292
G1 X4.7391 Y2.9165
G1 X4.7742 Y2.9124
G1 X4.8613 Y2.9048
G1 X4.8961 Y2.9028
G1 X4.9832 Y2.9002
G1 X5.0198 Y2.9002
G1 X5.1303 Y2.9043
G1 X5.1887 Y2.9083
G1 X19.8498 Y4.2317
G1 X19.8498 Y3.4885
G1 X2.1001 Y2.2512
G1 X2.1001 Y19.8999
G1 X2.8999 Y19.8999
G1 X2.9002 Y4.9825
G1 X2.9027 Y4.8954
G1 X2.9047 Y4.8606
G1 X2.9124 Y4.7735
G1 X2.9164 Y4.7384
G1 X2.9291 Y4.6521
G1 X2.9352 Y4.6170
G1 X2.9530 Y4.5317
G1 X2.9609 Y4.4986
G1 X2.9835 Y4.4143
G1 X2.9936 Y4.3810
G1 X3.0211 Y4.2982
G1 X3.0328 Y4.2657
G1 X3.0650 Y4.1844
G1 X3.0790 Y4.1522
G1 X3.1158 Y4.0732
G1 X3.1313 Y4.0425
G1 X3.1727 Y3.9655
G1 X3.1910 Y3.9335
G1 X3.2370 Y3.8593
G1 X3.7470 Y4.1756
G1 X3.7970 Y4.1039
G1 X3.8511 Y4.0356
G1 X3.9093 Y3.9703
G1 X3.9710 Y3.9086
G1 X4.0361 Y3.8507
G1 X4.1046 Y3.7966
G1 X4.1763 Y3.7465
G1 X4.2504 Y3.7008
G1 X4.3274 Y3.6594
G1 X4.4064 Y3.6226
G1 X4.4874 Y3.5903
G1 X4.5705 Y3.5629
G1 X4.6548 Y3.5403
G1 X4.7401 Y3.5228
G1 X4.8265 Y3.5101
G1 X4.9136 Y3.5025
G1 X5.0008 Y3.4999
G1 X5.0881 Y3.5027
G1 X5.1349 Y3.5060
G1 X20.4498 Y4.8883
G1 X20.4498 Y2.9289
G1 X1.5001 Y1.6081
G1 X1.5001 Y20.4999
G1 X3.4999 Y20.4999
G1 X3.4999 Y5.0000
G1 X3.5024 Y4.9129
G1 X3.5100 Y4.8258
G1 X3.5227 Y4.7394
G1 X3.5405 Y4.6541
G1 X3.5631 Y4.5698
G1 X3.5905 Y4.4870
G1 X3.6228 Y4.4057
G1 X3.6596 Y4.3267
G1 X3.7010 Y4.2497
G1 X3.7470 Y4.1756
; Rapid to initial position
G1 X2.7379 Y3.5266 F900
G1 Z-0.7500
; plunge
G1 Z-1.0000 F30
; cut
G1 X2.7635 Y3.4882 F80
G1 X2.8237 Y3.4024
G1 X2.8562 Y3.3592
G1 X2.9210 Y3.2779
G1 X2.9550 Y3.2375
G1 X3.0262 Y3.1580
G1 X3.0610 Y3.1220
G1 X3.1336 Y3.0493
G1 X3.1730 Y3.0125
G1 X3.2504 Y2.9439
G1 X3.2626 Y2.9335
G1 X2.7000 Y2.8944
G1 X2.7000 Y3.5868
G1 X2.7379 Y3.5266
G1 X3.2370 Y3.8593
G1 X3.2553 Y3.8319
G1 X3.3053 Y3.7603
G1 X3.3266 Y3.7316
G1 X3.3807 Y3.6632
G1 X3.4031 Y3.6366
G1 X3.4613 Y3.5713
G1 X3.4851 Y3.5461
G1 X3.5469 Y3.4844
G1 X3.5720 Y3.4605
G1 X3.6370 Y3.4026
G1 X3.6645 Y3.3795
G1 X3.7330 Y3.3254
G1 X3.7610 Y3.3048
G1 X3.8326 Y3.2548
G1 X3.8613 Y3.2358
G1 X3.9355 Y3.1900
G1 X3.9662 Y3.1725
G1 X4.0432 Y3.1311
G1 X4.0739 Y3.1156
G1 X4.1529 Y3.0788
G1 X4.1844 Y3.0651
G1 X4.2654 Y3.0328
G1 X4.2992 Y3.0206
G1 X4.3823 Y2.9932
G1 X4.4150 Y2.9833
G1 X4.4994 Y2.9607
G1 X4.5342 Y2.9525
G1 X4.6195 Y2.9350
G1 X4.6528 Y2.9292
G1 X4.7391 Y2.9165
G1 X4.7742 Y2.9124
G1 X4.8613 Y2.9048
G1 X4.8961 Y2.9028
G1 X4.9832 Y2.9002
G1 X5.0198 Y2.9002
G1 X5.1303 Y2.9043
G1 X5.1887 Y2.9083
G1 X19.8498 Y4.2317
G1 X19.8498 Y3.4885
G1 X2.1001 Y2.2512
G1 X2.1001 Y19.8999
G1 X2.8999 Y19.8999
G1 X2.9002 Y4.9825
G1 X2.9027 Y4.8954
G1 X2.9047 Y4.8606
G1 X2.9124 Y4.7735
G1 X2.9164 Y4.7384
G1 X2.9291 Y4.6521
G1 X2.9352 Y4.6170
G1 X2.9530 Y4.5317
G1 X2.9609 Y4.4986
G1 X2.9835 Y4.4143
G1 X2.9936 Y4.3810
G1 X3.0211 Y4.2982
G1 X3.0328 Y4.2657
G1 X3.0650 Y4.1844
G1 X3.0790 Y4.1522
G1 X3.1158 Y4.0732
G1 X3.1313 Y4.0425
G1 X3.1727 Y3.9655
G1 X3.1910 Y3.9335
G1 X3.2370 Y3.8593
G1 X3.7470 Y4.1756
G1 X3.7970 Y4.1039
G1 X3.8511 Y4.0356
G1 X3.9093 Y3.9703
G1 X3.9710 Y3.9086
G1 X4.0361 Y3.8507
G1 X4.1046 Y3.7966
G1 X4.1763 Y3.7465
G1 X4.2504 Y3.7008
G1 X4.3274 Y3.6594
G1 X4.4064 Y3.6226
G1 X4.4874 Y3.5903
G1 X4.5705 Y3.5629
G1 X4.6548 Y3.5403
G1 X4.7401 Y3.5228
G1 X4.8265 Y3.5101
G1 X4.9136 Y3.5025
G1 X5.0008 Y3.4999
G1 X5.0881 Y3.5027
G1 X5.1349 Y3.5060
G1 X20.4498 Y4.8883
G1 X20.4498 Y2.9289
G1 X1.5001 Y1.6081
G1 X1.5001 Y20.4999
G1 X3.4999 Y20.4999
G1 X3.4999 Y5.0000
G1 X3.5024 Y4.9129
G1 X3.5100 Y4.8258
G1 X3.5227 Y4.7394
G1 X3.5405 Y4.6541
G1 X3.5631 Y4.5698
G1 X3.5905 Y4.4870
G1 X3.6228 Y4.4057
G1 X3.6596 Y4.3267
G1 X3.7010 Y4.2497
G1 X3.7470 Y4.1756
; Retract
G1 Z20.0000 F900

; Return to 0,0
G0 X0 Y0 F900
M2
